SL-16 R/B               
1 25400U 98043G   26003.26872507  .00000161  00000+0  86205-4 0  9995
2 25400  98.8153 316.2106 0009418 198.6351 161.4485 14.26031902429665
SL-16 R/B               
1 25407U 98045B   26003.30800556 -.00000051  00000+0 -14620-5 0  9997
2 25407  71.0127 319.0686 0005557 140.1931 219.9601 14.16181875417846
ISS (ZARYA)             
1 25544U 98067A   26003.21020602  .00015578  00000+0  28954-3 0  9990
2 25544  51.6329  36.1624 0007549 334.7101  25.3517 15.49059586546183
CZ-4B R/B               
1 25732U 99025C   26003.11682994  .00000153  00000+0  94847-4 0  9999
2 25732  98.6738  48.9155 0037269 172.0975 204.0875 14.18249782378877
OKEAN-O                 
1 25860U 99039A   26003.15130409  .00001472  00000+0  20053-3 0  9991
2 25860  97.9572  63.6650 0001302 113.7027 246.4321 14.80206264424695
SL-16 R/B               
1 25861U 99039B   26003.12586379  .00001236  00000+0  16371-3 0  9996
2 25861  98.0094  62.2753 0016038 108.7085 251.5870 14.81624560427150
DELTA 2 R/B             
1 25876U 99041E   26003.23891549  .00003061  00000+0  53008-3 0  9991
2 25876  51.7590 202.6196 0504141 155.1386 207.4765 14.11484061353784
HELIOS 1B               
1 25977U 99064A   26003.26439132  .00004349  00000+0  48737-3 0  9990
2 25977  98.1754 263.5689 0000427  47.8401 312.2850 14.87390839675531
TERRA                   
1 25994U 99068A   26003.24252726  .00001008  00000+0  21489-3 0  9997
2 25994  97.9718  59.1346 0003071  50.6211  21.8934 14.60931777385521
SL-16 R/B               
1 26070U 00006B   26003.09446559  .00000254  00000+0  15343-3 0  9993
2 26070  71.0016 235.7581 0018840 279.9778  79.9219 14.15814587339278
TITAN 4B R/B            
1 26474U 00047B   26003.22061065  .00006269  00000+0  39763-3 0  9990
2 26474  67.9882 224.5197 0037490 118.3824 242.1113 15.08965393383035
ENVISAT                 
1 27386U 02009A   25365.95019499  .00000264  00000+0  99422-4 0  9995
2 27386  98.3626 316.2065 0001107  88.1807 295.1197 14.39007536249430
