CCSDS_OMM_VERS = 2.0
CREATION_DATE  = 
ORIGINATOR     = 

OBJECT_NAME    = SL-16 R/B
OBJECT_ID      = 1998-043G
CENTER_NAME    = EARTH
REF_FRAME      = TEME
TIME_SYSTEM    = UTC
MEAN_ELEMENT_THEORY = SGP/SGP4

EPOCH          = 2026-01-03T06:26:57.846048
MEAN_MOTION    = 14.26031902
ECCENTRICITY   = .0009418
INCLINATION    = 98.8153
RA_OF_ASC_NODE = 316.2106
ARG_OF_PERICENTER = 198.6351
MEAN_ANOMALY   = 161.4485

EPHEMERIS_TYPE = 0
CLASSIFICATION_TYPE = U
NORAD_CAT_ID   = 25400
ELEMENT_SET_NO = 999
REV_AT_EPOCH   = 42966
BSTAR          = .86205307E-4
MEAN_MOTION_DOT = .161E-5
MEAN_MOTION_DDOT = 0

CCSDS_OMM_VERS = 2.0
CREATION_DATE  = 
ORIGINATOR     = 

OBJECT_NAME    = SL-16 R/B
OBJECT_ID      = 1998-045B
CENTER_NAME    = EARTH
REF_FRAME      = TEME
TIME_SYSTEM    = UTC
MEAN_ELEMENT_THEORY = SGP/SGP4

EPOCH          = 2026-01-03T07:23:31.680384
MEAN_MOTION    = 14.16181875
ECCENTRICITY   = .0005557
INCLINATION    = 71.0127
RA_OF_ASC_NODE = 319.0686
ARG_OF_PERICENTER = 140.1931
MEAN_ANOMALY   = 219.9601

EPHEMERIS_TYPE = 0
CLASSIFICATION_TYPE = U
NORAD_CAT_ID   = 25407
ELEMENT_SET_NO = 999
REV_AT_EPOCH   = 41784
BSTAR          = -.1461968E-5
MEAN_MOTION_DOT = -.51E-6
MEAN_MOTION_DDOT = 0

CCSDS_OMM_VERS = 2.0
CREATION_DATE  = 
ORIGINATOR     = 

OBJECT_NAME    = ISS (ZARYA)
OBJECT_ID      = 1998-067A
CENTER_NAME    = EARTH
REF_FRAME      = TEME
TIME_SYSTEM    = UTC
MEAN_ELEMENT_THEORY = SGP/SGP4

EPOCH          = 2026-01-03T05:02:41.800128
MEAN_MOTION    = 15.49059586
ECCENTRICITY   = .00075493
INCLINATION    = 51.6329
RA_OF_ASC_NODE = 36.1624
ARG_OF_PERICENTER = 334.7101
MEAN_ANOMALY   = 25.3517

EPHEMERIS_TYPE = 0
CLASSIFICATION_TYPE = U
NORAD_CAT_ID   = 25544
ELEMENT_SET_NO = 999
REV_AT_EPOCH   = 54618
BSTAR          = .28953765E-3
MEAN_MOTION_DOT = .15578E-3
MEAN_MOTION_DDOT = 0

CCSDS_OMM_VERS = 2.0
CREATION_DATE  = 
ORIGINATOR     = 

OBJECT_NAME    = CZ-4B R/B
OBJECT_ID      = 1999-025C
CENTER_NAME    = EARTH
REF_FRAME      = TEME
TIME_SYSTEM    = UTC
MEAN_ELEMENT_THEORY = SGP/SGP4

EPOCH          = 2026-01-03T02:48:14.106816
MEAN_MOTION    = 14.18249782
ECCENTRICITY   = .00372692
INCLINATION    = 98.6738
RA_OF_ASC_NODE = 48.9155
ARG_OF_PERICENTER = 172.0975
MEAN_ANOMALY   = 204.0875

EPHEMERIS_TYPE = 0
CLASSIFICATION_TYPE = U
NORAD_CAT_ID   = 25732
ELEMENT_SET_NO = 999
REV_AT_EPOCH   = 37887
BSTAR          = .94846573E-4
MEAN_MOTION_DOT = .153E-5
MEAN_MOTION_DDOT = 0

CCSDS_OMM_VERS = 2.0
CREATION_DATE  = 
ORIGINATOR     = 

OBJECT_NAME    = OKEAN-O
OBJECT_ID      = 1999-039A
CENTER_NAME    = EARTH
REF_FRAME      = TEME
TIME_SYSTEM    = UTC
MEAN_ELEMENT_THEORY = SGP/SGP4

EPOCH          = 2026-01-03T03:37:52.673376
MEAN_MOTION    = 14.80206264
ECCENTRICITY   = .00013029
INCLINATION    = 97.9572
RA_OF_ASC_NODE = 63.6650
ARG_OF_PERICENTER = 113.7027
MEAN_ANOMALY   = 246.4321

EPHEMERIS_TYPE = 0
CLASSIFICATION_TYPE = U
NORAD_CAT_ID   = 25860
ELEMENT_SET_NO = 999
REV_AT_EPOCH   = 42469
BSTAR          = .20053156E-3
MEAN_MOTION_DOT = .1472E-4
MEAN_MOTION_DDOT = 0

CCSDS_OMM_VERS = 2.0
CREATION_DATE  = 
ORIGINATOR     = 

OBJECT_NAME    = SL-16 R/B
OBJECT_ID      = 1999-039B
CENTER_NAME    = EARTH
REF_FRAME      = TEME
TIME_SYSTEM    = UTC
MEAN_ELEMENT_THEORY = SGP/SGP4

EPOCH          = 2026-01-03T03:01:14.631456
MEAN_MOTION    = 14.81624560
ECCENTRICITY   = .00160388
INCLINATION    = 98.0094
RA_OF_ASC_NODE = 62.2753
ARG_OF_PERICENTER = 108.7085
MEAN_ANOMALY   = 251.5870

EPHEMERIS_TYPE = 0
CLASSIFICATION_TYPE = U
NORAD_CAT_ID   = 25861
ELEMENT_SET_NO = 999
REV_AT_EPOCH   = 42715
BSTAR          = .163707E-3
MEAN_MOTION_DOT = .1236E-4
MEAN_MOTION_DDOT = 0

CCSDS_OMM_VERS = 2.0
CREATION_DATE  = 
ORIGINATOR     = 

OBJECT_NAME    = DELTA 2 R/B
OBJECT_ID      = 1999-041E
CENTER_NAME    = EARTH
REF_FRAME      = TEME
TIME_SYSTEM    = UTC
MEAN_ELEMENT_THEORY = SGP/SGP4

EPOCH          = 2026-01-03T05:44:02.298336
MEAN_MOTION    = 14.11484061
ECCENTRICITY   = .05041411
INCLINATION    = 51.7590
RA_OF_ASC_NODE = 202.6196
ARG_OF_PERICENTER = 155.1386
MEAN_ANOMALY   = 207.4765

EPHEMERIS_TYPE = 0
CLASSIFICATION_TYPE = U
NORAD_CAT_ID   = 25876
ELEMENT_SET_NO = 999
REV_AT_EPOCH   = 35378
BSTAR          = .5300842E-3
MEAN_MOTION_DOT = .3061E-4
MEAN_MOTION_DDOT = 0

CCSDS_OMM_VERS = 2.0
CREATION_DATE  = 
ORIGINATOR     = 

OBJECT_NAME    = HELIOS 1B
OBJECT_ID      = 1999-064A
CENTER_NAME    = EARTH
REF_FRAME      = TEME
TIME_SYSTEM    = UTC
MEAN_ELEMENT_THEORY = SGP/SGP4

EPOCH          = 2026-01-03T06:20:43.410048
MEAN_MOTION    = 14.87390839
ECCENTRICITY   = .00004272
INCLINATION    = 98.1754
RA_OF_ASC_NODE = 263.5689
ARG_OF_PERICENTER = 47.8401
MEAN_ANOMALY   = 312.2850

EPHEMERIS_TYPE = 0
CLASSIFICATION_TYPE = U
NORAD_CAT_ID   = 25977
ELEMENT_SET_NO = 999
REV_AT_EPOCH   = 67553
BSTAR          = .4873736E-3
MEAN_MOTION_DOT = .4349E-4
MEAN_MOTION_DDOT = 0

CCSDS_OMM_VERS = 2.0
CREATION_DATE  = 
ORIGINATOR     = 

OBJECT_NAME    = TERRA
OBJECT_ID      = 1999-068A
CENTER_NAME    = EARTH
REF_FRAME      = TEME
TIME_SYSTEM    = UTC
MEAN_ELEMENT_THEORY = SGP/SGP4

EPOCH          = 2026-01-03T05:49:14.355264
MEAN_MOTION    = 14.60931777
ECCENTRICITY   = .00030711
INCLINATION    = 97.9718
RA_OF_ASC_NODE = 59.1346
ARG_OF_PERICENTER = 50.6211
MEAN_ANOMALY   = 21.8934

EPHEMERIS_TYPE = 0
CLASSIFICATION_TYPE = U
NORAD_CAT_ID   = 25994
ELEMENT_SET_NO = 999
REV_AT_EPOCH   = 38552
BSTAR          = .21489483E-3
MEAN_MOTION_DOT = .1008E-4
MEAN_MOTION_DDOT = 0

CCSDS_OMM_VERS = 2.0
CREATION_DATE  = 
ORIGINATOR     = 

OBJECT_NAME    = SL-16 R/B
OBJECT_ID      = 2000-006B
CENTER_NAME    = EARTH
REF_FRAME      = TEME
TIME_SYSTEM    = UTC
MEAN_ELEMENT_THEORY = SGP/SGP4

EPOCH          = 2026-01-03T02:16:01.826976
MEAN_MOTION    = 14.15814587
ECCENTRICITY   = .00188401
INCLINATION    = 71.0016
RA_OF_ASC_NODE = 235.7581
ARG_OF_PERICENTER = 279.9778
MEAN_ANOMALY   = 79.9219

EPHEMERIS_TYPE = 0
CLASSIFICATION_TYPE = U
NORAD_CAT_ID   = 26070
ELEMENT_SET_NO = 999
REV_AT_EPOCH   = 33927
BSTAR          = .15342548E-3
MEAN_MOTION_DOT = .254E-5
MEAN_MOTION_DDOT = 0

CCSDS_OMM_VERS = 2.0
CREATION_DATE  = 
ORIGINATOR     = 

OBJECT_NAME    = TITAN 4B R/B
OBJECT_ID      = 2000-047B
CENTER_NAME    = EARTH
REF_FRAME      = TEME
TIME_SYSTEM    = UTC
MEAN_ELEMENT_THEORY = SGP/SGP4

EPOCH          = 2026-01-03T05:17:40.760160
MEAN_MOTION    = 15.08965393
ECCENTRICITY   = .00374905
INCLINATION    = 67.9882
RA_OF_ASC_NODE = 224.5197
ARG_OF_PERICENTER = 118.3824
MEAN_ANOMALY   = 242.1113

EPHEMERIS_TYPE = 0
CLASSIFICATION_TYPE = U
NORAD_CAT_ID   = 26474
ELEMENT_SET_NO = 999
REV_AT_EPOCH   = 38303
BSTAR          = .39763071E-3
MEAN_MOTION_DOT = .6269E-4
MEAN_MOTION_DDOT = 0

CCSDS_OMM_VERS = 2.0
CREATION_DATE  = 
ORIGINATOR     = 

OBJECT_NAME    = ENVISAT
OBJECT_ID      = 2002-009A
CENTER_NAME    = EARTH
REF_FRAME      = TEME
TIME_SYSTEM    = UTC
MEAN_ELEMENT_THEORY = SGP/SGP4

EPOCH          = 2025-12-31T22:48:16.847136
MEAN_MOTION    = 14.39007536
ECCENTRICITY   = .0001107
INCLINATION    = 98.3626
RA_OF_ASC_NODE = 316.2065
ARG_OF_PERICENTER = 88.1807
MEAN_ANOMALY   = 295.1197

EPHEMERIS_TYPE = 0
CLASSIFICATION_TYPE = U
NORAD_CAT_ID   = 27386
ELEMENT_SET_NO = 999
REV_AT_EPOCH   = 24943
BSTAR          = .99422E-4
MEAN_MOTION_DOT = .264E-5
MEAN_MOTION_DDOT = 0

